<?xml version='1.0' encoding='UTF-8'?>
<kml xmlns='http://earth.google.com/kml/2.2'>
<Document>
  <Placemark>
    <name>FL1000</name>
    <LineString>
      <extrude>1</extrude>
      <altitudeMode>absolute</altitudeMode>
      <coordinates>
        -81.6809,-11.6316,10000
        71.0305,-48.9241,10000
        -86.3174,-44.2481,25000
        1.5266,53.0487,10000
        -47.9075,-29.5456,15000
        148.4729,31.1567,15000
        99.2555,23.4369,25000
        -100.7081,-23.0129,15000
        151.43,57.2061,10000
        17.4014,-55.6908,15000
        -121.5193,-89.1003,20000
        13.8442,39.7235,10000
        -173.087,-70.2913,20000
        -15.5536,83.7906,25000
        86.9687,-62.9328,25000
      </coordinates>
    </LineString>
  </Placemark>
  <Placemark>
    <name>FL1001</name>
    <LineString>
      <extrude>1</extrude>
      <altitudeMode>absolute</altitudeMode>
      <coordinates>
        35.3107,24.5072,15000
        -52.6143,79.2647,20000
        72.0502,-81.5324,10000
        83.3172,-0.0161,15000
        -73.4092,80.4381,20000
        -173.3746,-77.0297,15000
        -130.914,84.6753,15000
        19.1653,-75.1809,15000
        -163.0917,-24.9967,20000
        -175.1341,76.3442,10000
        33.2167,-63.3719,25000
        -29.2366,19.2772,10000
        36.1508,-46.6314,20000
        -103.3896,-70.4774,15000
        -81.0295,48.8504,10000
      </coordinates>
    </LineString>
  </Placemark>
  <Placemark>
    <name>FL1002</name>
    <LineString>
      <extrude>1</extrude>
      <altitudeMode>absolute</altitudeMode>
      <coordinates>
        135.9834,-65.6189,25000
        56.9199,-59.6872,10000
        12.7225,-63.1506,20000
        60.4077,-37.7724,10000
        -6.0389,-12.7387,15000
        -169.7411,67.7377,25000
        -69.388,65.5024,20000
        -135.474,66.273,10000
        116.4641,85.2454,20000
        46.0081,1.5207,25000
        85.9352,62.9564,20000
        10.1758,-54.4658,20000
      </coordinates>
    </LineString>
  </Placemark>
</Document>
</kml>
